KUIPER-00176            
1 65788U 25217AC  25280.66670139  .00066121  00000+0  18122-2 0  9997
2 65788  51.8744  23.6772 0002277  68.4459 289.2537 15.36678251  1456
